              M50 Cartesian                         J2K Cartesian  
    -----------------------------------       --------------------------------
     X    =      -21521881.05                 X    =        -6570076.34
     Y    =        4594818.88  feet           Y    =         1327086.82  meter
     Z    =       -3354159.97                 Z    =        -1054239.59
     XDOT =       -442.784371                 XDOT =         -51.505475
     YDOT =     -16084.647135  feet/sec       YDOT =       -4903.643523  meter/sec
     ZDOT =     -19331.923457                 ZDOT =       -5892.822779
 
              TDR Cartesian                         TDR Cartesian  
    -----------------------------------       --------------------------------
     X    =      -21328557.02                 X    =        -6500944.18
     Y    =       -5333485.04  feet           Y    =        -1625646.24  meter
     Z    =       -3492951.00                 Z    =        -1064651.46
     XDOT =       6402.741841                 XDOT =        1951.555713
     YDOT =     -13030.540178  feet/sec       YDOT =       -3971.708646  meter/sec
     ZDOT =     -19332.916322                 ZDOT =       -5892.672895
  
  
    The mean element set is posted at the UTC for which position is
    just north of the next ascending node relative to the above
    vector time
 
 
    TWO LINE MEAN ELEMENT SET
  
    ISS
    1 25544U 98067A   16112.37709375  .00016717  00000-0  10270-3 0  9010
    2 25544  51.6431 341.4084 0001745  46.8429 313.2869 15.54287116 36142
  
  
    Satellite: ISS
    Catalog Number: 25544
    Epoch time:      16112.37709375   =   yrday.fracday
    Element set:     901
    Inclination:       51.6431  deg
    RA of node:       341.4084  deg
    Eccentricity:     .0001745     
    Arg of perigee:    46.8429  deg
    Mean anomaly:     313.2869  deg
    Mean motion:   15.54287116  rev/day
    Decay rate:    1.67170E-04  rev/day^2
    Epoch rev:            3614
    Checksum:              306
 
 
    Coasting Arc #3 (Orbit 3629)
    ---------------------------------------
 
    Vector Time (GMT): 2016/113/08:19:37.794
    Vector Time (MET): N/A
    Weight (LBS)     : 945238.6
 
              M50 Cartesian                         M50 Keplerian  
    -----------------------------------       --------------------------------
     X    =        6218187.53                 A    =         6785749.67  meter
     Y    =        -451110.06  meter          E    =           .0015166
     Z    =        2660320.80                 I    =           51.50669
     XDOT =      -1842.975406                 Wp   =           74.55669
     YDOT =       5339.525410  meter/sec      RA   =          336.01414  deg
     ZDOT =       5192.416486                 TA   =          315.53888
                                              MA   =          315.66051
                                              Ha   =            221.214  n.mi
                                              Hp   =            213.841
 
              M50 Cartesian                         J2K Cartesian  
    -----------------------------------       --------------------------------
     X    =       20400877.73                 X    =         6209846.87
     Y    =       -1480019.87  feet           Y    =         -381620.60  meter
     Z    =        8728086.61                 Z    =         2690507.53
     XDOT =      -6046.507238                 XDOT =       -1927.769332
     YDOT =      17518.127984  feet/sec       YDOT =        5318.442270  meter/sec
     ZDOT =      17035.487160                 ZDOT =        5183.257291
 
              TDR Cartesian                         TDR Cartesian  
    -----------------------------------       --------------------------------
     X    =       19048534.13                 X    =         5805993.20
     Y    =        7296050.15  feet           Y    =         2223836.08  meter
     Z    =        8859275.74                 Z    =         2700307.24
     XDOT =     -12478.303018                 XDOT =       -3803.386760
     YDOT =      11861.084174  feet/sec       YDOT =        3615.258456  meter/sec
     ZDOT =      16994.650075                 ZDOT =        5179.969343
  
  
    The mean element set is posted at the UTC for which position is
    just north of the next ascending node relative to the above
    vector time
 
 
    TWO LINE MEAN ELEMENT SET
  
    ISS
    1 25544U 98067A   16113.40581336  .00016717  00000-0  10270-3 0  9021
    2 25544  51.6429 336.2791 0001852  49.5765 310.5549 15.54296827 36300
  
  
    Satellite: ISS
    Catalog Number: 25544
    Epoch time:      16113.40581336   =   yrday.fracday
    Element set:     902
    Inclination:       51.6429  deg
    RA of node:       336.2791  deg
    Eccentricity:     .0001852     
    Arg of perigee:    49.5765  deg
    Mean anomaly:     310.5549  deg
    Mean motion:   15.54296827  rev/day
    Decay rate:    1.67170E-04  rev/day^2
    Epoch rev:            3630
    Checksum:              315
 
 
    Coasting Arc #4 (Orbit 3634)
    ---------------------------------------
 
    Vector Time (GMT): 2016/113/17:08:00.000
    Vector Time (MET): N/A
    Weight (LBS)     : 945238.6
 
              M50 Cartesian                         M50 Keplerian  
    -----------------------------------       --------------------------------
     X    =        -238525.45                 A    =         6777622.73  meter
     Y    =       -4430373.60  meter          E    =           .0014963
     Z    =       -5136890.32                 I    =           51.46752
     XDOT =       7193.032982                 Wp   =           97.78038
     YDOT =      -2143.892476  meter/sec      RA   =          334.14192  deg
     ZDOT =       1516.841893                 TA   =          186.87778
                                              MA   =          186.89834
                                              Ha   =            221.260  n.mi
                                              Hp   =            213.796
 
              M50 Cartesian                         J2K Cartesian  
    -----------------------------------       --------------------------------
     X    =        -782563.80                 X    =         -164012.89
     Y    =      -14535346.47  feet           Y    =        -4432624.64  meter
     Z    =      -16853314.68                 Z    =        -5137867.78
     XDOT =      23599.189572                 XDOT =        7209.103611
     YDOT =      -7033.767966  feet/sec       YDOT =       -2063.365247  meter/sec
     ZDOT =       4976.515397                 ZDOT =        1551.823682
 
              TDR Cartesian                         TDR Cartesian  
    -----------------------------------       --------------------------------
     X    =      -13675514.99                 X    =        -4168296.97
     Y    =        4975491.13  feet           Y    =         1516529.69  meter
     Z    =      -16856681.07                 Z    =        -5137916.39
     XDOT =     -13373.802826                 XDOT =       -4076.335101
     YDOT =     -19402.798983  feet/sec       YDOT =       -5913.973130  meter/sec
     ZDOT =       5128.861588                 ZDOT =        1563.277012
  
  
    The mean element set is posted at the UTC for which position is
    just north of the next ascending node relative to the above
    vector time
 
 
    TWO LINE MEAN ELEMENT SET
  
    ISS
    1 25544U 98067A   16113.72728648  .00016717  00000-0  10270-3 0  9036
    2 25544  51.6417 334.6724 0001629  66.3066 293.8257 15.54314939 36357
  
  
    Satellite: ISS
    Catalog Number: 25544
    Epoch time:      16113.72728648   =   yrday.fracday
    Element set:     903
    Inclination:       51.6417  deg
    RA of node:       334.6724  deg
    Eccentricity:     .0001629     
    Arg of perigee:    66.3066  deg
    Mean anomaly:     293.8257  deg
    Mean motion:   15.54314939  rev/day
    Decay rate:    1.67170E-04  rev/day^2
    Epoch rev:            3635
    Checksum:              327
 
 
    Coasting Arc #5 (Orbit 3650)
    ---------------------------------------
 
    Vector Time (GMT): 2016/114/17:08:00.000
    Vector Time (MET): N/A
    Weight (LBS)     : 945238.6
 
              M50 Cartesian                         M50 Keplerian  
    -----------------------------------       --------------------------------
     X    =       -1458536.97                 A    =         6780720.20  meter
     Y    =        4949607.46  meter          E    =           .0011072
     Z    =        4392223.43                 I    =           51.44838
     XDOT =      -6832.185261                 Wp   =           70.50932
     YDOT =        971.134855  meter/sec      RA   =          329.13222  deg
     ZDOT =      -3352.626156                 TA   =           53.51259
                                              MA   =           53.41063
                                              Ha   =            221.350  n.mi
                                              Hp   =            213.860
 
              M50 Cartesian                         J2K Cartesian  
    -----------------------------------       --------------------------------
     X    =       -4785226.29                 X    =        -1535112.27
     Y    =       16238869.63  feet           Y    =         4932869.17  meter
     Z    =       14410181.86                 Z    =         4384951.87
     XDOT =     -22415.305973                 XDOT =       -6826.251009
     YDOT =       3186.137977  feet/sec       YDOT =         894.765847  meter/sec
     ZDOT =     -10999.429647                 ZDOT =       -3385.801490
 
